[{"OBJECT_NAME":"STARLINK-5927","OBJECT_ID":"2023-037W","EPOCH":"2026-03-09T23:17:41.428032","MEAN_MOTION":14.98325789,"ECCENTRICITY":0.00031066,"INCLINATION":69.9983,"RA_OF_ASC_NODE":283.6929,"ARG_OF_PERICENTER":268.5475,"MEAN_ANOMALY":91.5328,"EPHEMERIS_TYPE":0,"CLASSIFICATION_TYPE":"U","NORAD_CAT_ID":55934,"ELEMENT_SET_NO":999,"REV_AT_EPOCH":16402,"BSTAR":0.00012257811,"MEAN_MOTION_DOT":1.37e-5,"MEAN_MOTION_DDOT":0},{"OBJECT_NAME":"CENTAURI-7","OBJECT_ID":"2025-009DD","EPOCH":"2026-03-09T18:21:07.569216","MEAN_MOTION":14.97068612,"ECCENTRICITY":0.00019728,"INCLINATION":97.7123,"RA_OF_ASC_NODE":150.3372,"ARG_OF_PERICENTER":133.1699,"MEAN_ANOMALY":226.9688,"EPHEMERIS_TYPE":0,"CLASSIFICATION_TYPE":"U","NORAD_CAT_ID":62708,"ELEMENT_SET_NO":999,"REV_AT_EPOCH":6258,"BSTAR":0.00048082234,"MEAN_MOTION_DOT":5.487e-5,"MEAN_MOTION_DDOT":0}]
